CCSDS_OMM_VERS = 2.0
CREATION_DATE  = 
ORIGINATOR     = 

OBJECT_NAME    = SL-4 R/B
OBJECT_ID      = 2014-021B
CENTER_NAME    = EARTH
REF_FRAME      = TEME
TIME_SYSTEM    = UTC
MEAN_ELEMENT_THEORY = SGP/SGP4

EPOCH          = 2026-02-22T16:37:44.980608
MEAN_MOTION    = 15.38626111
ECCENTRICITY   = .0098692
INCLINATION    = 51.6065
RA_OF_ASC_NODE = 50.4080
ARG_OF_PERICENTER = 48.3095
MEAN_ANOMALY   = 312.6281

EPHEMERIS_TYPE = 0
CLASSIFICATION_TYPE = U
NORAD_CAT_ID   = 39679
ELEMENT_SET_NO = 999
REV_AT_EPOCH   = 65396
BSTAR          = .35273E-3
MEAN_MOTION_DOT = .15764E-3
MEAN_MOTION_DDOT = 0

CCSDS_OMM_VERS = 2.0
CREATION_DATE  = 
ORIGINATOR     = 

OBJECT_NAME    = ALOS-2
OBJECT_ID      = 2014-029A
CENTER_NAME    = EARTH
REF_FRAME      = TEME
TIME_SYSTEM    = UTC
MEAN_ELEMENT_THEORY = SGP/SGP4

EPOCH          = 2026-02-22T20:09:07.490592
MEAN_MOTION    = 14.79478141
ECCENTRICITY   = .0001616
INCLINATION    = 97.9202
RA_OF_ASC_NODE = 152.6510
ARG_OF_PERICENTER = 98.0289
MEAN_ANOMALY   = 262.1105

EPHEMERIS_TYPE = 0
CLASSIFICATION_TYPE = U
NORAD_CAT_ID   = 39766
ELEMENT_SET_NO = 999
REV_AT_EPOCH   = 63467
BSTAR          = .29756E-3
MEAN_MOTION_DOT = .2172E-4
MEAN_MOTION_DDOT = 0

CCSDS_OMM_VERS = 2.0
CREATION_DATE  = 
ORIGINATOR     = 

OBJECT_NAME    = YAOGAN-29
OBJECT_ID      = 2015-069A
CENTER_NAME    = EARTH
REF_FRAME      = TEME
TIME_SYSTEM    = UTC
MEAN_ELEMENT_THEORY = SGP/SGP4

EPOCH          = 2026-02-22T21:11:34.816704
MEAN_MOTION    = 14.82974659
ECCENTRICITY   = .0002632
INCLINATION    = 98.0158
RA_OF_ASC_NODE = 82.2715
ARG_OF_PERICENTER = 59.9326
MEAN_ANOMALY   = 300.2148

EPHEMERIS_TYPE = 0
CLASSIFICATION_TYPE = U
NORAD_CAT_ID   = 41038
ELEMENT_SET_NO = 999
REV_AT_EPOCH   = 55368
BSTAR          = .82901E-5
MEAN_MOTION_DOT = .13E-6
MEAN_MOTION_DDOT = 0

CCSDS_OMM_VERS = 2.0
CREATION_DATE  = 
ORIGINATOR     = 

OBJECT_NAME    = ASTRO-H (HITOMI)
OBJECT_ID      = 2016-012A
CENTER_NAME    = EARTH
REF_FRAME      = TEME
TIME_SYSTEM    = UTC
MEAN_ELEMENT_THEORY = SGP/SGP4

EPOCH          = 2026-02-22T10:19:00.377472
MEAN_MOTION    = 15.09884166
ECCENTRICITY   = .0009895
INCLINATION    = 30.9992
RA_OF_ASC_NODE = 95.0126
ARG_OF_PERICENTER = 179.5415
MEAN_ANOMALY   = 180.5234

EPHEMERIS_TYPE = 0
CLASSIFICATION_TYPE = U
NORAD_CAT_ID   = 41337
ELEMENT_SET_NO = 999
REV_AT_EPOCH   = 54992
BSTAR          = .20149E-3
MEAN_MOTION_DOT = .3442E-4
MEAN_MOTION_DDOT = 0

CCSDS_OMM_VERS = 2.0
CREATION_DATE  = 
ORIGINATOR     = 

OBJECT_NAME    = HXMT (HUIYAN)
OBJECT_ID      = 2017-034A
CENTER_NAME    = EARTH
REF_FRAME      = TEME
TIME_SYSTEM    = UTC
MEAN_ELEMENT_THEORY = SGP/SGP4

EPOCH          = 2026-02-22T13:42:59.632992
MEAN_MOTION    = 15.17254339
ECCENTRICITY   = .003098
INCLINATION    = 43.0136
RA_OF_ASC_NODE = 100.7097
ARG_OF_PERICENTER = 140.8236
MEAN_ANOMALY   = 219.4862

EPHEMERIS_TYPE = 0
CLASSIFICATION_TYPE = U
NORAD_CAT_ID   = 42758
ELEMENT_SET_NO = 999
REV_AT_EPOCH   = 48024
BSTAR          = .25827E-3
MEAN_MOTION_DOT = .5058E-4
MEAN_MOTION_DDOT = 0

CCSDS_OMM_VERS = 2.0
CREATION_DATE  = 
ORIGINATOR     = 

OBJECT_NAME    = CZ-2C R/B
OBJECT_ID      = 2018-054D
CENTER_NAME    = EARTH
REF_FRAME      = TEME
TIME_SYSTEM    = UTC
MEAN_ELEMENT_THEORY = SGP/SGP4

EPOCH          = 2026-02-22T09:35:07.454112
MEAN_MOTION    = 16.11513552
ECCENTRICITY   = .0011305
INCLINATION    = 35.1258
RA_OF_ASC_NODE = 45.8183
ARG_OF_PERICENTER = 167.7803
MEAN_ANOMALY   = 192.3217

EPHEMERIS_TYPE = 0
CLASSIFICATION_TYPE = U
NORAD_CAT_ID   = 43521
ELEMENT_SET_NO = 999
REV_AT_EPOCH   = 42644
BSTAR          = .97229E-3
MEAN_MOTION_DOT = .1072573E-1
MEAN_MOTION_DDOT = .69132E-3

CCSDS_OMM_VERS = 2.0
CREATION_DATE  = 
ORIGINATOR     = 

OBJECT_NAME    = SAOCOM 1A
OBJECT_ID      = 2018-076A
CENTER_NAME    = EARTH
REF_FRAME      = TEME
TIME_SYSTEM    = UTC
MEAN_ELEMENT_THEORY = SGP/SGP4

EPOCH          = 2026-02-22T20:10:35.622912
MEAN_MOTION    = 14.82150532
ECCENTRICITY   = .0001323
INCLINATION    = 97.8879
RA_OF_ASC_NODE = 242.2228
ARG_OF_PERICENTER = 79.1941
MEAN_ANOMALY   = 280.9421

EPHEMERIS_TYPE = 0
CLASSIFICATION_TYPE = U
NORAD_CAT_ID   = 43641
ELEMENT_SET_NO = 999
REV_AT_EPOCH   = 39916
BSTAR          = .43293E-4
MEAN_MOTION_DOT = .292E-5
MEAN_MOTION_DDOT = 0

CCSDS_OMM_VERS = 2.0
CREATION_DATE  = 
ORIGINATOR     = 

OBJECT_NAME    = H-2A R/B
OBJECT_ID      = 2018-084L
CENTER_NAME    = EARTH
REF_FRAME      = TEME
TIME_SYSTEM    = UTC
MEAN_ELEMENT_THEORY = SGP/SGP4

EPOCH          = 2026-02-22T12:54:59.450976
MEAN_MOTION    = 15.40631921
ECCENTRICITY   = .002628
INCLINATION    = 98.8748
RA_OF_ASC_NODE = 267.6958
ARG_OF_PERICENTER = 76.2458
MEAN_ANOMALY   = 284.1706

EPHEMERIS_TYPE = 0
CLASSIFICATION_TYPE = U
NORAD_CAT_ID   = 43682
ELEMENT_SET_NO = 999
REV_AT_EPOCH   = 40344
BSTAR          = .55296E-3
MEAN_MOTION_DOT = .22731E-3
MEAN_MOTION_DDOT = 0

CCSDS_OMM_VERS = 2.0
CREATION_DATE  = 
ORIGINATOR     = 

OBJECT_NAME    = SAOCOM 1B
OBJECT_ID      = 2020-059A
CENTER_NAME    = EARTH
REF_FRAME      = TEME
TIME_SYSTEM    = UTC
MEAN_ELEMENT_THEORY = SGP/SGP4

EPOCH          = 2026-02-22T19:18:22.491072
MEAN_MOTION    = 14.82153622
ECCENTRICITY   = .0001432
INCLINATION    = 97.8876
RA_OF_ASC_NODE = 241.2850
ARG_OF_PERICENTER = 84.2055
MEAN_ANOMALY   = 275.9322

EPHEMERIS_TYPE = 0
CLASSIFICATION_TYPE = U
NORAD_CAT_ID   = 46265
ELEMENT_SET_NO = 999
REV_AT_EPOCH   = 29654
BSTAR          = .63337E-4
MEAN_MOTION_DOT = .452E-5
MEAN_MOTION_DDOT = 0

CCSDS_OMM_VERS = 2.0
CREATION_DATE  = 
ORIGINATOR     = 

OBJECT_NAME    = CSS (TIANHE)
OBJECT_ID      = 2021-035A
CENTER_NAME    = EARTH
REF_FRAME      = TEME
TIME_SYSTEM    = UTC
MEAN_ELEMENT_THEORY = SGP/SGP4

EPOCH          = 2026-02-22T19:14:59.849376
MEAN_MOTION    = 15.60000533
ECCENTRICITY   = .0005254
INCLINATION    = 41.4667
RA_OF_ASC_NODE = 298.7008
ARG_OF_PERICENTER = 173.5718
MEAN_ANOMALY   = 186.5189

EPHEMERIS_TYPE = 0
CLASSIFICATION_TYPE = U
NORAD_CAT_ID   = 48274
ELEMENT_SET_NO = 999
REV_AT_EPOCH   = 27528
BSTAR          = .18154E-3
MEAN_MOTION_DOT = .14798E-3
MEAN_MOTION_DDOT = 0

CCSDS_OMM_VERS = 2.0
CREATION_DATE  = 
ORIGINATOR     = 

OBJECT_NAME    = COSMOS 2550
OBJECT_ID      = 2021-056A
CENTER_NAME    = EARTH
REF_FRAME      = TEME
TIME_SYSTEM    = UTC
MEAN_ELEMENT_THEORY = SGP/SGP4

EPOCH          = 2026-02-21T20:49:13.046304
MEAN_MOTION    = 15.33831385
ECCENTRICITY   = .0008383
INCLINATION    = 67.1417
RA_OF_ASC_NODE = 88.7921
ARG_OF_PERICENTER = 269.2454
MEAN_ANOMALY   = 90.7739

EPHEMERIS_TYPE = 0
CLASSIFICATION_TYPE = U
NORAD_CAT_ID   = 48865
ELEMENT_SET_NO = 999
REV_AT_EPOCH   = 26103
BSTAR          = .98957E-7
MEAN_MOTION_DOT = -.189E-5
MEAN_MOTION_DDOT = 0

CCSDS_OMM_VERS = 2.0
CREATION_DATE  = 
ORIGINATOR     = 

OBJECT_NAME    = CZ-2C R/B
OBJECT_ID      = 2022-058K
CENTER_NAME    = EARTH
REF_FRAME      = TEME
TIME_SYSTEM    = UTC
MEAN_ELEMENT_THEORY = SGP/SGP4

EPOCH          = 2026-02-22T15:43:30.899136
MEAN_MOTION    = 15.53105768
ECCENTRICITY   = .0042131
INCLINATION    = 50.1896
RA_OF_ASC_NODE = 35.5583
ARG_OF_PERICENTER = 136.8502
MEAN_ANOMALY   = 223.5783

EPHEMERIS_TYPE = 0
CLASSIFICATION_TYPE = U
NORAD_CAT_ID   = 52794
ELEMENT_SET_NO = 999
REV_AT_EPOCH   = 20779
BSTAR          = .60401E-3
MEAN_MOTION_DOT = .39775E-3
MEAN_MOTION_DDOT = 0

