SL-4 R/B                
1 39679U 14021B   26053.69288172  .00015764  00000+0  35273-3 0  9996
2 39679  51.6065  50.4080 0098692  48.3095 312.6281 15.38626111653965
ALOS-2                  
1 39766U 14029A   26053.83967003  .00002172  00000+0  29756-3 0  9992
2 39766  97.9202 152.6510 0001616  98.0289 262.1105 14.79478141634671
YAOGAN-29               
1 41038U 15069A   26053.88304186  .00000013  00000+0  82901-5 0  9999
2 41038  98.0158  82.2715 0002632  59.9326 300.2148 14.82974659553681
ASTRO-H (HITOMI)        
1 41337U 16012A   26053.42986548  .00003442  00000+0  20149-3 0  9991
2 41337  30.9992  95.0126 0009895 179.5415 180.5234 15.09884166549928
HXMT (HUIYAN)           
1 42758U 17034A   26053.57152353  .00005058  00000+0  25827-3 0  9992
2 42758  43.0136 100.7097 0030980 140.8236 219.4862 15.17254339480243
CZ-2C R/B               
1 43521U 18054D   26053.39939183  .01072573  69132-3  97229-3 0  9995
2 43521  35.1258  45.8183 0011305 167.7803 192.3217 16.11513552426447
SAOCOM 1A               
1 43641U 18076A   26053.84069008  .00000292  00000+0  43293-4 0  9998
2 43641  97.8879 242.2228 0001323  79.1941 280.9421 14.82150532399165
H-2A R/B                
1 43682U 18084L   26053.53818809  .00022731  00000+0  55296-3 0  9996
2 43682  98.8748 267.6958 0026280  76.2458 284.1706 15.40631921403447
SAOCOM 1B               
1 46265U 20059A   26053.80442698  .00000452  00000+0  63337-4 0  9992
2 46265  97.8876 241.2850 0001432  84.2055 275.9322 14.82153622296546
CSS (TIANHE)            
1 48274U 21035A   26053.80208159  .00014798  00000+0  18154-3 0  9995
2 48274  41.4667 298.7008 0005254 173.5718 186.5189 15.60000533275282
COSMOS 2550             
1 48865U 21056A   26052.86751211 -.00000189  00000+0  98957-7 0  9994
2 48865  67.1417  88.7921 0008383 269.2454  90.7739 15.33831385261035
CZ-2C R/B               
1 52794U 22058K   26053.65521874  .00039775  00000+0  60401-3 0  9992
2 52794  50.1896  35.5583 0042131 136.8502 223.5783 15.53105768207799
